LYNK TOWER 5            
1 59121U 24043Z   26068.92489786  .00009048  00000+0  31902-3 0  9994
2 59121  97.5458 204.7305 0010406 234.6422 125.3846 15.29454506111860
STARLINK-32298          
1 61525U 24183S   26068.47073154  .00001822  00000+0  73648-4 0  9994
2 61525  53.1612 143.1144 0001257  88.4931 271.6213 15.30197754 79623
